ORBCOMM FM115           
1 41186U 15081H   24150.17259020  .00000954  00000+0  22887-3 0  9990
2 41186  46.9998  63.5532 0000126 127.4583 232.6315 14.60753231451598
ORBCOMM FM108           
1 41187U 15081J   24149.92878589  .00001147  00000+0  29180-3 0  9997
2 41187  47.0040 119.5904 0003290 334.5239  25.5483 14.56664281450829
ORBCOMM FM117           
1 41188U 15081K   24149.75778272  .00000512  00000+0  15108-3 0  9997
2 41188  47.0001 119.2869 0003545 344.8347  15.2431 14.56619129450764
ORBCOMM FM116           
1 41189U 15081L   24149.47209765  .00000841  00000+0  22376-3 0  9993
2 41189  46.9999 210.4495 0000782  85.1200 274.9775 14.56689340449531
